{"type":"FeatureCollection","features":[{"type":"Feature","properties":{"nombre":"Lago Arenal","nombre_oficial":"Embalse de Arenal","codigo":"150203","area_m2":88236197.0,"fuente":"IGN_25:cuerposdeagua_25k (SNIT, Instituto Geografico Nacional)"},"geometry":{"type":"Polygon","coordinates":[[[-84.74997,10.46146],[-84.74918,10.46165],[-84.74854,10.46225],[-84.7472,10.46197],[-84.7472,10.46242],[-84.74649,10.46225],[-84.74622,10.4627],[-84.74566,10.46221],[-84.74429,10.46512],[-84.74355,10.46492],[-84.74379,10.46411],[-84.74335,10.46332],[-84.74377,10.46167],[-84.74237,10.46148],[-84.7437,10.46114],[-84.74336,10.46072],[-84.74486,10.46081],[-84.7448,10.46034],[-84.74435,10.46042],[-84.74472,10.45991],[-84.74456,10.4595],[-84.74363,10.45939],[-84.74414,10.45899],[-84.74376,10.45902],[-84.74403,10.45807],[-84.7437,10.45766],[-84.74403,10.45743],[-84.74321,10.45728],[-84.74428,10.45678],[-84.74394,10.4567],[-84.74429,10.45408],[-84.7438,10.45221],[-84.74337,10.45243],[-84.74181,10.45173],[-84.74234,10.45127],[-84.74228,10.45032],[-84.74181,10.44985],[-84.74245,10.44956],[-84.74188,10.44965],[-84.74194,10.44924],[-84.74168,10.44917],[-84.74102,10.44949],[-84.74096,10.44926],[-84.74168,10.44887],[-84.74143,10.44834],[-84.74102,10.44823],[-84.74135,10.44811],[-84.74065,10.44706],[-84.74083,10.44655],[-84.74035,10.44637],[-84.73995,10.44675],[-84.74015,10.44635],[-84.73977,10.44636],[-84.7398,10.44538],[-84.7394,10.44519],[-84.73964,10.44495],[-84.73906,10.44495],[-84.73921,10.44433],[-84.73859,10.4442],[-84.73881,10.44373],[-84.73806,10.44432],[-84.73818,10.44401],[-84.73786,10.44393],[-84.73875,10.44347],[-84.73845,10.44297],[-84.73866,10.44263],[-84.73825,10.4406],[-84.7375,10.44026],[-84.73771,10.44007],[-84.73743,10.43964],[-84.73649,10.44031],[-84.7372,10.43952],[-84.73645,10.43974],[-84.73706,10.43924],[-84.73666,10.43842],[-84.73583,10.43908],[-84.73636,10.43817],[-84.73705,10.43779],[-84.73525,10.43763],[-84.73493,10.43798],[-84.73265,10.43837],[-84.73211,10.438],[-84.7344,10.43642],[-84.73442,10.43611],[-84.73379,10.43611],[-84.7336,10.43548],[-84.73386,10.4358],[-84.73427,10.43573],[-84.73396,10.43564],[-84.73416,10.43541],[-84.7347,10.43579],[-84.73516,10.43514],[-84.73468,10.43487],[-84.73483,10.43414],[-84.73453,10.43356],[-84.73565,10.4336],[-84.73628,10.43474],[-84.73612,10.43494],[-84.73684,10.43557],[-84.73742,10.43513],[-84.73707,10.43409],[-84.73733,10.43359],[-84.73793,10.43356],[-84.73807,10.43315],[-84.73832,10.4332],[-84.73816,10.4335],[-84.73865,10.43285],[-84.73917,10.43383],[-84.73973,10.43254],[-84.74031,10.43266],[-84.74165,10.43187],[-84.74128,10.43257],[-84.74129,10.4339],[-84.74093,10.43446],[-84.74108,10.43523],[-84.74154,10.43549],[-84.74174,10.43429],[-84.74212,10.43394],[-84.74269,10.43412],[-84.74283,10.43323],[-84.74367,10.4325],[-84.74425,10.4327],[-84.74403,10.43369],[-84.74533,10.43264],[-84.74552,10.43018],[-84.74673,10.43056],[-84.74731,10.42965],[-84.74803,10.42932],[-84.74784,10.43032],[-84.74807,10.43012],[-84.74886,10.43098],[-84.74912,10.43065],[-84.74938,10.43131],[-84.74978,10.43132],[-84.74924,10.43293],[-84.75037,10.43372],[-84.75095,10.43506],[-84.75062,10.43366],[-84.75168,10.43396],[-84.75172,10.43367],[-84.75106,10.43293],[-84.75101,10.43184],[-84.75027,10.4311],[-84.75024,10.43068],[-84.7516,10.42878],[-84.75203,10.42753],[-84.75217,10.42816],[-84.7518,10.42857],[-84.75155,10.43013],[-84.75087,10.43072],[-84.75205,10.43138],[-84.75239,10.43183],[-84.75219,10.43245],[-84.75258,10.43245],[-84.75304,10.43311],[-84.75335,10.43194],[-84.75253,10.43087],[-84.75232,10.42979],[-84.75278,10.42986],[-84.75299,10.43032],[-84.75357,10.43001],[-84.75358,10.43036],[-84.75413,10.43047],[-84.75481,10.43167],[-84.75547,10.43166],[-84.75514,10.43028],[-84.75553,10.4301],[-84.75584,10.43062],[-84.75571,10.4297],[-84.75599,10.42912],[-84.75673,10.42974],[-84.75688,10.43081],[-84.75721,10.43032],[-84.75774,10.431],[-84.75897,10.4304],[-84.7593,10.43074],[-84.75954,10.43059],[-84.75954,10.43107],[-84.76034,10.43122],[-84.76112,10.43053],[-84.76204,10.43105],[-84.76194,10.43209],[-84.76216,10.43162],[-84.76311,10.43125],[-84.76376,10.4321],[-84.7642,10.4317],[-84.76421,10.43104],[-84.76592,10.42899],[-84.76535,10.42716],[-84.76619,10.42504],[-84.76592,10.42449],[-84.76681,10.42448],[-84.76669,10.42382],[-84.76758,10.42458],[-84.76749,10.42555],[-84.7678,10.42589],[-84.76853,10.42473],[-84.7686,10.42543],[-84.7691,10.4252],[-84.76883,10.42556],[-84.76986,10.42543],[-84.76946,10.42567],[-84.76954,10.42596],[-84.76978,10.42586],[-84.76983,10.42703],[-84.77053,10.42794],[-84.77053,10.42899],[-84.77131,10.42854],[-84.77181,10.42883],[-84.77136,10.42845],[-84.77162,10.42797],[-84.77234,10.4286],[-84.77142,10.42964],[-84.77135,10.43188],[-84.77193,10.43157],[-84.77191,10.43051],[-84.77232,10.42996],[-84.77315,10.43039],[-84.77349,10.43016],[-84.77426,10.43096],[-84.77617,10.43128],[-84.77624,10.43105],[-84.77542,10.43091],[-84.77516,10.42983],[-84.77471,10.42946],[-84.77498,10.42866],[-84.77505,10.42945],[-84.77552,10.42965],[-84.7757,10.43028],[-84.77637,10.42927],[-84.77743,10.43],[-84.77797,10.43004],[-84.77833,10.42952],[-84.77874,10.42952],[-84.77846,10.42964],[-84.77844,10.43059],[-84.77812,10.43096],[-84.77858,10.4313],[-84.77823,10.432],[-84.77831,10.43329],[-84.77763,10.43461],[-84.77873,10.43396],[-84.7802,10.43454],[-84.78038,10.43535],[-84.77984,10.4354],[-84.77946,10.43627],[-84.78117,10.43749],[-84.78141,10.43837],[-84.78114,10.4392],[-84.78148,10.43924],[-84.7818,10.4388],[-84.78275,10.43892],[-84.78451,10.43982],[-84.78547,10.43932],[-84.78682,10.43968],[-84.78712,10.43914],[-84.78791,10.4392],[-84.78713,10.43937],[-84.78688,10.43986],[-84.78552,10.43995],[-84.78782,10.44025],[-84.78888,10.44097],[-84.78921,10.44157],[-84.79068,10.44189],[-84.79168,10.44308],[-84.79221,10.4431],[-84.79188,10.44274],[-84.79327,10.44288],[-84.79396,10.44464],[-84.79685,10.44528],[-84.79804,10.44507],[-84.79842,10.44441],[-84.7992,10.44393],[-84.79867,10.4451],[-84.79922,10.44499],[-84.79905,10.44576],[-84.79934,10.44619],[-84.79831,10.44635],[-84.79833,10.44693],[-84.7991,10.44777],[-84.80089,10.44749],[-84.80157,10.44845],[-84.80256,10.44823],[-84.80292,10.44927],[-84.80331,10.44931],[-84.80316,10.4491],[-84.80366,10.44888],[-84.80422,10.44899],[-84.80469,10.44836],[-84.80473,10.44904],[-84.8063,10.44878],[-84.80706,10.44829],[-84.80754,10.44911],[-84.80806,10.44908],[-84.80841,10.4478],[-84.80856,10.44865],[-84.80928,10.44939],[-84.80999,10.44914],[-84.8105,10.44936],[-84.81062,10.44887],[-84.81131,10.44929],[-84.81209,10.44931],[-84.81241,10.44902],[-84.81285,10.44961],[-84.81288,10.44799],[-84.81313,10.44781],[-84.81322,10.44873],[-84.81498,10.4496],[-84.8146,10.45089],[-84.81533,10.45131],[-84.81499,10.45298],[-84.81551,10.45363],[-84.81653,10.45373],[-84.81668,10.45322],[-84.81732,10.45321],[-84.81783,10.45195],[-84.81889,10.45316],[-84.81922,10.45312],[-84.81943,10.45255],[-84.81981,10.45275],[-84.82035,10.45241],[-84.8203,10.45314],[-84.82076,10.45344],[-84.82074,10.45297],[-84.82189,10.45289],[-84.82212,10.45346],[-84.82188,10.45394],[-84.82275,10.4533],[-84.82312,10.45378],[-84.82273,10.45366],[-84.82264,10.45423],[-84.82365,10.45443],[-84.8242,10.45416],[-84.82537,10.45424],[-84.8257,10.45386],[-84.82635,10.45379],[-84.82688,10.45278],[-84.82697,10.45409],[-84.82631,10.45439],[-84.82556,10.45531],[-84.82409,10.45559],[-84.82218,10.45678],[-84.82355,10.45647],[-84.82413,10.45701],[-84.82542,10.45712],[-84.82555,10.45651],[-84.82658,10.45645],[-84.8273,10.45682],[-84.82721,10.45622],[-84.8282,10.45616],[-84.82948,10.45683],[-84.82992,10.45771],[-84.8309,10.4586],[-84.83117,10.45809],[-84.83146,10.45846],[-84.83176,10.458],[-84.83262,10.45834],[-84.83362,10.4581],[-84.83453,10.45839],[-84.83574,10.45786],[-84.83622,10.45705],[-84.83707,10.4571],[-84.8377,10.45605],[-84.83869,10.45664],[-84.83944,10.45637],[-84.83951,10.45564],[-84.84001,10.45574],[-84.84282,10.45412],[-84.84618,10.45145],[-84.84825,10.45042],[-84.84829,10.45257],[-84.84924,10.45347],[-84.84873,10.45426],[-84.8482,10.45446],[-84.84785,10.45561],[-84.84682,10.4568],[-84.84665,10.45911],[-84.84611,10.45981],[-84.84589,10.46128],[-84.84551,10.46168],[-84.846,10.4622],[-84.84506,10.46262],[-84.84432,10.46144],[-84.84374,10.46233],[-84.84287,10.46253],[-84.84629,10.46381],[-84.84615,10.4644],[-84.84651,10.46505],[-84.84584,10.46587],[-84.84558,10.46689],[-84.84429,10.46779],[-84.84624,10.46912],[-84.84716,10.46838],[-84.84788,10.46871],[-84.84723,10.46858],[-84.847,10.46922],[-84.84869,10.46998],[-84.84907,10.47138],[-84.8486,10.47146],[-84.84915,10.47154],[-84.84806,10.47125],[-84.84741,10.47173],[-84.84611,10.47161],[-84.84664,10.47178],[-84.8472,10.47262],[-84.84772,10.47253],[-84.8482,10.47394],[-84.84916,10.47417],[-84.84971,10.47476],[-84.85149,10.47488],[-84.85204,10.47457],[-84.85176,10.47537],[-84.85087,10.47554],[-84.85048,10.47647],[-84.84947,10.47674],[-84.8493,10.47704],[-84.85055,10.47751],[-84.85142,10.47705],[-84.85273,10.47756],[-84.85305,10.47831],[-84.85328,10.4778],[-84.85404,10.47744],[-84.85327,10.47877],[-84.85198,10.47854],[-84.85112,10.4794],[-84.85188,10.48011],[-84.8518,10.48077],[-84.85125,10.48133],[-84.85184,10.48154],[-84.85269,10.48075],[-84.85348,10.48089],[-84.85394,10.48065],[-84.85477,10.48159],[-84.85515,10.48114],[-84.85632,10.48109],[-84.85648,10.48126],[-84.85545,10.48153],[-84.85493,10.48222],[-84.85368,10.48204],[-84.85334,10.48336],[-84.85521,10.48369],[-84.85617,10.48338],[-84.85634,10.48375],[-84.85677,10.48377],[-84.85682,10.48434],[-84.85628,10.48447],[-84.85636,10.48466],[-84.85707,10.48505],[-84.85759,10.48497],[-84.85833,10.48573],[-84.858,10.48653],[-84.85699,10.48704],[-84.85729,10.48757],[-84.85878,10.48719],[-84.8606,10.4875],[-84.86127,10.48811],[-84.86176,10.48809],[-84.86164,10.48856],[-84.86061,10.48868],[-84.86031,10.48917],[-84.86129,10.48957],[-84.8607,10.49078],[-84.86118,10.49056],[-84.86262,10.49087],[-84.86189,10.49132],[-84.8618,10.49193],[-84.86136,10.49229],[-84.86176,10.49307],[-84.86226,10.4931],[-84.86291,10.49213],[-84.86441,10.49161],[-84.86634,10.49236],[-84.86751,10.49189],[-84.86788,10.49143],[-84.86777,10.49221],[-84.8661,10.49385],[-84.86622,10.49429],[-84.86717,10.49463],[-84.86833,10.4957],[-84.86884,10.49509],[-84.86979,10.49513],[-84.87007,10.4941],[-84.86905,10.49399],[-84.86949,10.49272],[-84.87,10.49324],[-84.87075,10.49286],[-84.87138,10.49346],[-84.87192,10.49304],[-84.87211,10.49367],[-84.87154,10.49451],[-84.87187,10.49511],[-84.87263,10.49468],[-84.87255,10.49406],[-84.87311,10.49349],[-84.8744,10.49382],[-84.87479,10.49475],[-84.87565,10.4943],[-84.87547,10.49376],[-84.87662,10.49345],[-84.87655,10.49372],[-84.87772,10.49447],[-84.87829,10.49319],[-84.8789,10.49285],[-84.87923,10.493],[-84.87899,10.49359],[-84.87919,10.49458],[-84.8802,10.49483],[-84.88064,10.49437],[-84.88143,10.49462],[-84.8819,10.49542],[-84.88249,10.49522],[-84.88316,10.49568],[-84.88341,10.4963],[-84.88301,10.49666],[-84.88315,10.49682],[-84.88478,10.49591],[-84.88507,10.49516],[-84.88642,10.49405],[-84.88652,10.49364],[-84.8874,10.49347],[-84.8887,10.49104],[-84.88948,10.49185],[-84.89148,10.49178],[-84.89154,10.4914],[-84.89202,10.49127],[-84.89256,10.49233],[-84.89357,10.49215],[-84.89428,10.49285],[-84.8952,10.49248],[-84.89566,10.49291],[-84.89569,10.49343],[-84.8969,10.49429],[-84.89772,10.49317],[-84.89763,10.4923],[-84.89848,10.494],[-84.89914,10.49464],[-84.89972,10.49644],[-84.90144,10.49648],[-84.9018,10.49615],[-84.90209,10.49642],[-84.90153,10.49772],[-84.90226,10.49789],[-84.9023,10.49815],[-84.90091,10.49976],[-84.90191,10.50042],[-84.90263,10.5],[-84.90509,10.5],[-84.90493,10.50151],[-84.90405,10.50217],[-84.90409,10.50249],[-84.90541,10.5019],[-84.90608,10.50205],[-84.90708,10.50297],[-84.90855,10.503],[-84.91064,10.50442],[-84.91081,10.50541],[-84.91282,10.50561],[-84.91323,10.50533],[-84.91321,10.50467],[-84.91025,10.50285],[-84.91114,10.50326],[-84.91334,10.50352],[-84.91346,10.50327],[-84.91289,10.50283],[-84.91299,10.50218],[-84.91454,10.50158],[-84.91493,10.50037],[-84.91569,10.5],[-84.91534,10.50055],[-84.91601,10.50166],[-84.91566,10.50238],[-84.91587,10.50301],[-84.91774,10.5041],[-84.9191,10.50648],[-84.91956,10.50621],[-84.92003,10.50658],[-84.9204,10.5065],[-84.92031,10.50702],[-84.92095,10.50754],[-84.91996,10.50945],[-84.91832,10.50932],[-84.91588,10.511],[-84.91505,10.51065],[-84.91436,10.51139],[-84.91344,10.51153],[-84.91431,10.51172],[-84.91442,10.51232],[-84.91539,10.51281],[-84.91504,10.51344],[-84.91583,10.51382],[-84.91788,10.51395],[-84.91845,10.51382],[-84.91901,10.5132],[-84.91842,10.51443],[-84.9178,10.51464],[-84.91821,10.51499],[-84.91955,10.51432],[-84.92061,10.51484],[-84.9219,10.51419],[-84.92212,10.51318],[-84.92043,10.51205],[-84.9209,10.51142],[-84.92023,10.51112],[-84.92076,10.50966],[-84.92222,10.50989],[-84.9224,10.5085],[-84.92265,10.50841],[-84.9229,10.50898],[-84.9233,10.50891],[-84.92323,10.50949],[-84.9242,10.50999],[-84.92411,10.51041],[-84.92303,10.51071],[-84.92306,10.51124],[-84.92521,10.5108],[-84.92549,10.51029],[-84.9265,10.51142],[-84.92768,10.51151],[-84.92777,10.51198],[-84.926,10.51275],[-84.92613,10.51367],[-84.92678,10.51371],[-84.9279,10.51312],[-84.92803,10.51371],[-84.93025,10.5148],[-84.93044,10.51533],[-84.93216,10.51563],[-84.9334,10.51608],[-84.93412,10.51678],[-84.93463,10.51679],[-84.93483,10.51645],[-84.93449,10.51553],[-84.93574,10.51439],[-84.9352,10.51365],[-84.93547,10.51315],[-84.93524,10.51248],[-84.93483,10.5125],[-84.9345,10.51214],[-84.93462,10.51189],[-84.93388,10.51127],[-84.93272,10.51104],[-84.93263,10.50944],[-84.93211,10.50946],[-84.93169,10.50877],[-84.93117,10.50944],[-84.93064,10.50926],[-84.9306,10.50863],[-84.92955,10.50881],[-84.92988,10.50822],[-84.92945,10.50774],[-84.92871,10.50755],[-84.92815,10.50634],[-84.92865,10.50597],[-84.92858,10.50646],[-84.92897,10.50636],[-84.92967,10.5071],[-84.93036,10.50721],[-84.93114,10.50701],[-84.93108,10.50661],[-84.93204,10.5065],[-84.93233,10.50732],[-84.93323,10.50603],[-84.93305,10.50504],[-84.93374,10.50461],[-84.93341,10.50514],[-84.93424,10.5064],[-84.93481,10.50646],[-84.93547,10.50582],[-84.93541,10.50667],[-84.93483,10.50744],[-84.93535,10.50743],[-84.93598,10.50677],[-84.93532,10.50816],[-84.93569,10.50896],[-84.93677,10.50952],[-84.93859,10.5086],[-84.93953,10.5077],[-84.93945,10.5074],[-84.94007,10.50737],[-84.94043,10.50694],[-84.94164,10.50687],[-84.94257,10.50773],[-84.94363,10.5078],[-84.94264,10.50799],[-84.94191,10.50724],[-84.94099,10.50729],[-84.93975,10.51061],[-84.94097,10.51062],[-84.94181,10.51017],[-84.94283,10.5106],[-84.94442,10.50997],[-84.94512,10.51005],[-84.94523,10.50948],[-84.94568,10.50932],[-84.94646,10.50982],[-84.94739,10.51082],[-84.94585,10.51132],[-84.94611,10.51303],[-84.94791,10.51351],[-84.94873,10.51311],[-84.94975,10.51409],[-84.95015,10.51369],[-84.95085,10.51359],[-84.9503,10.51447],[-84.95041,10.51506],[-84.95195,10.51491],[-84.95197,10.51568],[-84.95299,10.51651],[-84.95342,10.51647],[-84.95441,10.51816],[-84.95417,10.51858],[-84.95443,10.51874],[-84.95452,10.51838],[-84.95552,10.51905],[-84.9551,10.51943],[-84.95561,10.51981],[-84.95577,10.52041],[-84.95632,10.52067],[-84.95631,10.52143],[-84.95905,10.52051],[-84.95803,10.52189],[-84.95825,10.52225],[-84.95873,10.52223],[-84.96046,10.52463],[-84.96081,10.52471],[-84.96035,10.52566],[-84.96121,10.5267],[-84.96239,10.5274],[-84.96387,10.52706],[-84.9641,10.52613],[-84.96456,10.52606],[-84.96503,10.5253],[-84.96554,10.52539],[-84.96514,10.52509],[-84.96563,10.52439],[-84.96664,10.52507],[-84.9688,10.52489],[-84.96871,10.52527],[-84.96914,10.52567],[-84.96987,10.52557],[-84.97007,10.52628],[-84.97062,10.52573],[-84.97144,10.52581],[-84.97075,10.52606],[-84.97049,10.52664],[-84.96974,10.5267],[-84.96852,10.52612],[-84.96785,10.52636],[-84.96796,10.52724],[-84.96747,10.52893],[-84.96808,10.52946],[-84.96801,10.53001],[-84.96946,10.52903],[-84.97016,10.5295],[-84.97165,10.5297],[-84.97142,10.53057],[-84.97177,10.53112],[-84.97236,10.53129],[-84.97285,10.53188],[-84.97371,10.53205],[-84.97302,10.53038],[-84.97209,10.52978],[-84.97253,10.52961],[-84.97269,10.52866],[-84.97309,10.52924],[-84.97369,10.52939],[-84.9743,10.52911],[-84.97419,10.53008],[-84.97452,10.53044],[-84.97558,10.52959],[-84.97631,10.53069],[-84.9774,10.53049],[-84.97766,10.53127],[-84.97895,10.53138],[-84.97844,10.53171],[-84.97782,10.53328],[-84.97765,10.53499],[-84.9802,10.53427],[-84.9803,10.53477],[-84.98121,10.53543],[-84.98199,10.53549],[-84.98176,10.53636],[-84.98259,10.53846],[-84.98188,10.54088],[-84.98247,10.54145],[-84.98156,10.54172],[-84.98145,10.54289],[-84.98206,10.54373],[-84.98233,10.54338],[-84.98161,10.54483],[-84.98196,10.54532],[-84.98238,10.54505],[-84.98249,10.54547],[-84.98134,10.54536],[-84.98056,10.54366],[-84.97952,10.54281],[-84.97941,10.54229],[-84.97817,10.54211],[-84.97726,10.54405],[-84.97953,10.54711],[-84.98001,10.5474],[-84.98029,10.54694],[-84.98059,10.54699],[-84.98083,10.54856],[-84.98021,10.54824],[-84.97937,10.54829],[-84.97903,10.54792],[-84.97842,10.54829],[-84.97859,10.54868],[-84.97811,10.54854],[-84.97736,10.5489],[-84.9772,10.54811],[-84.97647,10.54797],[-84.97571,10.5482],[-84.97462,10.54957],[-84.97475,10.54838],[-84.97447,10.54744],[-84.97521,10.54642],[-84.97441,10.54529],[-84.97325,10.54535],[-84.97309,10.5447],[-84.97365,10.54432],[-84.9737,10.54349],[-84.97289,10.54303],[-84.9729,10.542],[-84.97183,10.54173],[-84.96955,10.54309],[-84.96942,10.54371],[-84.97062,10.54474],[-84.97043,10.54577],[-84.97319,10.54688],[-84.97266,10.54823],[-84.9728,10.54907],[-84.97371,10.54894],[-84.97325,10.54992],[-84.97269,10.54954],[-84.97252,10.54887],[-84.97222,10.54945],[-84.97136,10.5486],[-84.97042,10.54875],[-84.97176,10.55001],[-84.97281,10.54975],[-84.97296,10.5506],[-84.97401,10.55161],[-84.97432,10.55322],[-84.97401,10.5533],[-84.97459,10.55404],[-84.97444,10.55444],[-84.9742,10.5539],[-84.97319,10.55361],[-84.97229,10.55275],[-84.97059,10.5522],[-84.96936,10.55225],[-84.96925,10.55254],[-84.96966,10.55295],[-84.96883,10.5539],[-84.9683,10.55585],[-84.96836,10.55619],[-84.9691,10.55633],[-84.96935,10.55671],[-84.96889,10.55736],[-84.96882,10.55712],[-84.96812,10.55719],[-84.96696,10.55675],[-84.96693,10.55533],[-84.96658,10.555],[-84.9658,10.5552],[-84.96549,10.55589],[-84.96444,10.55498],[-84.96331,10.55568],[-84.9634,10.55523],[-84.96308,10.55485],[-84.96344,10.55461],[-84.96101,10.55395],[-84.96157,10.55287],[-84.96139,10.55238],[-84.96018,10.55162],[-84.95972,10.55184],[-84.95924,10.55161],[-84.95874,10.55112],[-84.95876,10.55054],[-84.95839,10.55006],[-84.95688,10.55024],[-84.95694,10.5509],[-84.9561,10.55104],[-84.95557,10.55045],[-84.95568,10.54976],[-84.95543,10.54958],[-84.95358,10.55025],[-84.95302,10.54985],[-84.95195,10.55086],[-84.95144,10.55039],[-84.95024,10.55039],[-84.94994,10.55101],[-84.95027,10.55181],[-84.94988,10.55223],[-84.94948,10.55211],[-84.94968,10.55182],[-84.9481,10.54987],[-84.94574,10.54773],[-84.94508,10.54871],[-84.94496,10.54969],[-84.94592,10.55029],[-84.94596,10.5511],[-84.94522,10.55093],[-84.94524,10.55052],[-84.945,10.55056],[-84.94432,10.55131],[-84.94442,10.55201],[-84.94315,10.55314],[-84.94369,10.55237],[-84.9433,10.55236],[-84.94318,10.55167],[-84.94239,10.55125],[-84.94318,10.55074],[-84.94296,10.54938],[-84.94245,10.54905],[-84.94183,10.54912],[-84.94138,10.5487],[-84.94163,10.5474],[-84.9409,10.54755],[-84.93948,10.5472],[-84.93942,10.54677],[-84.94016,10.5458],[-84.94019,10.54514],[-84.93867,10.54481],[-84.939,10.54403],[-84.93848,10.54305],[-84.93803,10.54322],[-84.93671,10.54532],[-84.93644,10.54601],[-84.93662,10.54679],[-84.93504,10.54711],[-84.93445,10.54787],[-84.93329,10.54784],[-84.93268,10.54825],[-84.93193,10.54827],[-84.93168,10.54866],[-84.93092,10.54859],[-84.92992,10.54953],[-84.92984,10.55029],[-84.92921,10.55055],[-84.9286,10.55031],[-84.92661,10.55111],[-84.92685,10.55129],[-84.92783,10.55098],[-84.92885,10.55224],[-84.92953,10.55188],[-84.92999,10.55207],[-84.93011,10.55102],[-84.93075,10.55069],[-84.931,10.54993],[-84.93252,10.54956],[-84.93274,10.54991],[-84.93508,10.54794],[-84.93625,10.54798],[-84.9339,10.54944],[-84.9351,10.55034],[-84.9338,10.54992],[-84.9336,10.55045],[-84.93393,10.55101],[-84.93314,10.55064],[-84.93182,10.55095],[-84.93179,10.55119],[-84.93302,10.55128],[-84.93386,10.55241],[-84.93227,10.55138],[-84.9316,10.55166],[-84.93122,10.5524],[-84.93005,10.55295],[-84.92914,10.55292],[-84.92949,10.55347],[-84.92996,10.55318],[-84.93089,10.55461],[-84.9319,10.55524],[-84.93162,10.55561],[-84.93239,10.55654],[-84.93333,10.55627],[-84.9343,10.55662],[-84.93385,10.55695],[-84.93403,10.5572],[-84.93471,10.55718],[-84.93451,10.55747],[-84.93317,10.55747],[-84.93203,10.55802],[-84.93072,10.557],[-84.93045,10.55739],[-84.9303,10.55653],[-84.92957,10.55588],[-84.92853,10.55629],[-84.92812,10.55582],[-84.92717,10.55595],[-84.92706,10.55626],[-84.92771,10.55652],[-84.92762,10.55708],[-84.92822,10.55758],[-84.92673,10.5573],[-84.92602,10.55678],[-84.92622,10.55647],[-84.92505,10.55585],[-84.92514,10.55549],[-84.92458,10.55504],[-84.92285,10.55393],[-84.92209,10.55395],[-84.9221,10.55344],[-84.92163,10.55291],[-84.92083,10.55293],[-84.91934,10.55398],[-84.91994,10.5531],[-84.91956,10.55249],[-84.92066,10.55164],[-84.91824,10.54938],[-84.91772,10.54822],[-84.91667,10.54822],[-84.91718,10.5475],[-84.91643,10.54638],[-84.91498,10.54527],[-84.91447,10.54353],[-84.91308,10.54326],[-84.91264,10.54262],[-84.91272,10.542],[-84.91181,10.54176],[-84.91113,10.54246],[-84.91067,10.54212],[-84.90963,10.54226],[-84.9091,10.54277],[-84.90973,10.54398],[-84.90947,10.54489],[-84.90979,10.54551],[-84.90969,10.5466],[-84.91051,10.54625],[-84.91092,10.54668],[-84.91155,10.54633],[-84.91206,10.54682],[-84.91195,10.54725],[-84.9124,10.54665],[-84.91368,10.54744],[-84.91289,10.54745],[-84.9127,10.54813],[-84.91309,10.54911],[-84.91366,10.54945],[-84.91363,10.55005],[-84.91478,10.5502],[-84.91482,10.5507],[-84.91566,10.55123],[-84.91678,10.55113],[-84.91795,10.55224],[-84.91688,10.5515],[-84.91527,10.55197],[-84.91335,10.55121],[-84.9129,10.55166],[-84.91158,10.55162],[-84.9112,10.55218],[-84.91083,10.5518],[-84.9107,10.5509],[-84.9099,10.55129],[-84.91024,10.55046],[-84.90963,10.55019],[-84.90994,10.54985],[-84.90964,10.54969],[-84.90887,10.55026],[-84.90782,10.55049],[-84.90762,10.55118],[-84.9072,10.551],[-84.90656,10.55129],[-84.90583,10.55086],[-84.90634,10.55243],[-84.90592,10.5521],[-84.90492,10.55219],[-84.90506,10.55305],[-84.90469,10.55354],[-84.9043,10.5533],[-84.90415,10.55365],[-84.90402,10.55323],[-84.90458,10.55293],[-84.90453,10.55183],[-84.90379,10.55112],[-84.90247,10.55176],[-84.90161,10.55159],[-84.90142,10.55198],[-84.90087,10.55068],[-84.9003,10.5505],[-84.89946,10.55114],[-84.89941,10.55169],[-84.89851,10.54984],[-84.89764,10.54948],[-84.89803,10.54928],[-84.89954,10.55031],[-84.9007,10.54836],[-84.90038,10.54791],[-84.90079,10.54786],[-84.90086,10.54808],[-84.902,10.54811],[-84.90185,10.5487],[-84.90315,10.54954],[-84.9028,10.54803],[-84.90298,10.54726],[-84.90295,10.54785],[-84.9038,10.54908],[-84.90483,10.54879],[-84.90622,10.54903],[-84.90612,10.54849],[-84.90668,10.54824],[-84.90645,10.54783],[-84.90688,10.54722],[-84.90686,10.54597],[-84.90671,10.54564],[-84.90593,10.54563],[-84.9059,10.5451],[-84.90539,10.5448],[-84.9062,10.54476],[-84.90657,10.54406],[-84.90562,10.54328],[-84.90489,10.54315],[-84.90507,10.54263],[-84.9046,10.54224],[-84.9047,10.54176],[-84.90285,10.54132],[-84.90429,10.54114],[-84.90591,10.54144],[-84.90872,10.53988],[-84.90955,10.5386],[-84.9094,10.53801],[-84.90858,10.5374],[-84.90778,10.53827],[-84.90738,10.53803],[-84.90702,10.53833],[-84.90699,10.53789],[-84.90753,10.53724],[-84.90734,10.53685],[-84.90355,10.53781],[-84.90469,10.53685],[-84.9048,10.53579],[-84.90546,10.53548],[-84.90496,10.53354],[-84.90532,10.53312],[-84.90618,10.53328],[-84.90518,10.53172],[-84.90465,10.53144],[-84.90421,10.5324],[-84.9043,10.53355],[-84.9039,10.53368],[-84.90335,10.5332],[-84.90294,10.53328],[-84.90264,10.53438],[-84.90299,10.53478],[-84.90281,10.53499],[-84.90056,10.53418],[-84.90003,10.5343],[-84.89998,10.53458],[-84.90132,10.53553],[-84.90017,10.53599],[-84.90046,10.53677],[-84.89909,10.53657],[-84.89837,10.53689],[-84.89831,10.5372],[-84.89903,10.5376],[-84.89828,10.53841],[-84.89813,10.53791],[-84.89686,10.5373],[-84.89622,10.53759],[-84.89516,10.5374],[-84.89502,10.53682],[-84.89477,10.53725],[-84.89397,10.53735],[-84.89362,10.53645],[-84.89305,10.53678],[-84.89263,10.53639],[-84.89181,10.53664],[-84.89105,10.53553],[-84.89103,10.53684],[-84.89256,10.53754],[-84.89208,10.53765],[-84.89178,10.53843],[-84.8919,10.53877],[-84.8925,10.53881],[-84.89264,10.53936],[-84.89233,10.53912],[-84.89195,10.53993],[-84.8916,10.53991],[-84.89097,10.53937],[-84.89123,10.53923],[-84.89113,10.53826],[-84.89014,10.53889],[-84.89046,10.53862],[-84.89036,10.53795],[-84.88997,10.53779],[-84.89035,10.53625],[-84.88997,10.53575],[-84.88819,10.53485],[-84.8883,10.53452],[-84.88772,10.53386],[-84.88747,10.5324],[-84.88604,10.53176],[-84.88533,10.53198],[-84.88535,10.53259],[-84.88633,10.53275],[-84.88599,10.53419],[-84.88581,10.53318],[-84.88529,10.53386],[-84.88528,10.5336],[-84.88451,10.53351],[-84.88423,10.53278],[-84.88384,10.53276],[-84.88402,10.53327],[-84.8837,10.53338],[-84.88366,10.53297],[-84.88309,10.53277],[-84.88357,10.53162],[-84.88332,10.53122],[-84.883,10.53121],[-84.88278,10.5317],[-84.88214,10.53164],[-84.88115,10.53076],[-84.88075,10.53122],[-84.88043,10.53105],[-84.88032,10.53149],[-84.88021,10.53078],[-84.87965,10.53099],[-84.88016,10.53006],[-84.87968,10.52978],[-84.87893,10.53008],[-84.87871,10.5291],[-84.87793,10.52911],[-84.87631,10.52769],[-84.87458,10.52736],[-84.87296,10.52623],[-84.87237,10.52716],[-84.87218,10.52635],[-84.87157,10.52629],[-84.87145,10.52581],[-84.87181,10.52548],[-84.87092,10.52462],[-84.86994,10.52462],[-84.87004,10.52501],[-84.86972,10.52508],[-84.87007,10.52353],[-84.86957,10.52343],[-84.86908,10.52383],[-84.86855,10.52367],[-84.86887,10.52305],[-84.86835,10.52309],[-84.86806,10.52258],[-84.86829,10.52219],[-84.86827,10.52252],[-84.86881,10.52236],[-84.86871,10.52213],[-84.86767,10.52227],[-84.86739,10.52155],[-84.86682,10.5214],[-84.86658,10.52052],[-84.86593,10.52059],[-84.86613,10.52027],[-84.86575,10.5201],[-84.86629,10.51961],[-84.8662,10.51931],[-84.86521,10.51914],[-84.86468,10.51867],[-84.86494,10.51776],[-84.86394,10.51682],[-84.8647,10.51638],[-84.86484,10.5157],[-84.86374,10.51534],[-84.86351,10.51467],[-84.86102,10.51451],[-84.86255,10.51347],[-84.86077,10.51147],[-84.8603,10.51133],[-84.85937,10.51216],[-84.85893,10.51203],[-84.85964,10.51009],[-84.85807,10.50973],[-84.85785,10.51021],[-84.85667,10.50946],[-84.85691,10.50922],[-84.85672,10.50901],[-84.85653,10.50969],[-84.85679,10.50997],[-84.8562,10.51114],[-84.85638,10.51059],[-84.85547,10.50902],[-84.85492,10.50962],[-84.85381,10.50934],[-84.85459,10.50903],[-84.8552,10.50775],[-84.85368,10.50693],[-84.85353,10.50619],[-84.85241,10.50584],[-84.85202,10.5065],[-84.85273,10.50664],[-84.85317,10.50722],[-84.85095,10.50804],[-84.85047,10.50694],[-84.85079,10.50593],[-84.85061,10.50568],[-84.84829,10.50888],[-84.84825,10.50938],[-84.84879,10.50955],[-84.84919,10.51021],[-84.8495,10.51016],[-84.84822,10.51002],[-84.84795,10.50952],[-84.84753,10.50976],[-84.84778,10.50951],[-84.84731,10.50935],[-84.84764,10.50936],[-84.84745,10.5088],[-84.84792,10.50799],[-84.84756,10.50829],[-84.84709,10.50819],[-84.84633,10.50717],[-84.84749,10.50771],[-84.84802,10.50729],[-84.84796,10.50602],[-84.84634,10.50385],[-84.84633,10.50265],[-84.84582,10.50242],[-84.84582,10.50196],[-84.84415,10.50087],[-84.84439,10.50069],[-84.84443,10.50119],[-84.84451,10.50088],[-84.84631,10.50129],[-84.8471,10.50084],[-84.84762,10.50121],[-84.84851,10.50108],[-84.8491,10.50139],[-84.84973,10.50099],[-84.84934,10.50063],[-84.84869,10.50062],[-84.84785,10.49985],[-84.8459,10.49991],[-84.84514,10.49942],[-84.84378,10.50058],[-84.84265,10.50067],[-84.84173,10.49976],[-84.84152,10.5],[-84.84149,10.49953],[-84.84064,10.49956],[-84.84071,10.49819],[-84.83901,10.49715],[-84.83932,10.4968],[-84.83918,10.49618],[-84.83833,10.49549],[-84.83762,10.49419],[-84.83773,10.49211],[-84.83725,10.49208],[-84.83722,10.49145],[-84.83776,10.49108],[-84.83824,10.49153],[-84.83959,10.49162],[-84.83965,10.49124],[-84.83922,10.4911],[-84.83903,10.49056],[-84.83899,10.49099],[-84.83879,10.49086],[-84.83888,10.49046],[-84.83973,10.49024],[-84.84053,10.49058],[-84.84118,10.49],[-84.84144,10.49047],[-84.84125,10.49119],[-84.84069,10.49171],[-84.84132,10.49281],[-84.84165,10.49205],[-84.84237,10.49229],[-84.84192,10.49142],[-84.84237,10.49089],[-84.84171,10.49031],[-84.84182,10.48947],[-84.84049,10.48805],[-84.83928,10.48818],[-84.83843,10.4889],[-84.83736,10.48848],[-84.83818,10.48779],[-84.83821,10.48814],[-84.83783,10.48829],[-84.83837,10.48832],[-84.83887,10.48721],[-84.83844,10.48593],[-84.83793,10.48578],[-84.83779,10.48519],[-84.83689,10.4849],[-84.83896,10.4849],[-84.83927,10.48465],[-84.83938,10.48375],[-84.83871,10.48337],[-84.83822,10.48258],[-84.8377,10.48254],[-84.8376,10.48201],[-84.83633,10.48172],[-84.83668,10.4814],[-84.83728,10.48158],[-84.83757,10.48125],[-84.83767,10.4807],[-84.83735,10.48014],[-84.83567,10.47989],[-84.83514,10.47916],[-84.83439,10.47913],[-84.83441,10.47861],[-84.83398,10.47832],[-84.83412,10.47792],[-84.83481,10.47735],[-84.83557,10.47728],[-84.83504,10.47696],[-84.83492,10.47635],[-84.83326,10.47638],[-84.83123,10.47746],[-84.8319,10.47643],[-84.83145,10.47607],[-84.83203,10.4762],[-84.83178,10.47587],[-84.83214,10.47474],[-84.83171,10.4747],[-84.83155,10.47426],[-84.8319,10.47346],[-84.83001,10.47219],[-84.83117,10.47184],[-84.8312,10.47128],[-84.82927,10.47122],[-84.82953,10.47198],[-84.82842,10.47219],[-84.82812,10.47257],[-84.8282,10.47313],[-84.82781,10.47327],[-84.82772,10.47213],[-84.8266,10.47128],[-84.82623,10.47216],[-84.82636,10.4729],[-84.82579,10.47324],[-84.82529,10.47294],[-84.82601,10.47284],[-84.82541,10.47225],[-84.82496,10.47053],[-84.82546,10.46982],[-84.8253,10.46903],[-84.82582,10.46875],[-84.82524,10.46841],[-84.82265,10.46808],[-84.82238,10.46833],[-84.82239,10.46924],[-84.82192,10.4693],[-84.82195,10.46884],[-84.82124,10.46791],[-84.82032,10.46757],[-84.82026,10.46793],[-84.81985,10.46795],[-84.81928,10.46707],[-84.81913,10.46815],[-84.81809,10.46852],[-84.81789,10.46888],[-84.81729,10.46881],[-84.81863,10.46793],[-84.81805,10.46671],[-84.81867,10.46584],[-84.81819,10.46559],[-84.81701,10.46586],[-84.81598,10.46571],[-84.81534,10.46609],[-84.81608,10.46512],[-84.814,10.46508],[-84.81357,10.46581],[-84.81372,10.46626],[-84.81283,10.46719],[-84.81293,10.46741],[-84.81276,10.46707],[-84.81234,10.46753],[-84.81312,10.46618],[-84.8127,10.46544],[-84.81175,10.4662],[-84.81139,10.46539],[-84.81071,10.46557],[-84.81053,10.46623],[-84.81038,10.46562],[-84.81193,10.4645],[-84.80878,10.46421],[-84.80708,10.46496],[-84.80633,10.46596],[-84.80672,10.4663],[-84.80626,10.46687],[-84.80639,10.46719],[-84.80617,10.46696],[-84.80644,10.46642],[-84.80579,10.46644],[-84.80583,10.46547],[-84.80442,10.46558],[-84.80405,10.46516],[-84.80331,10.46557],[-84.80411,10.4636],[-84.80391,10.4632],[-84.8016,10.46253],[-84.80094,10.46312],[-84.80003,10.46277],[-84.79967,10.46315],[-84.80021,10.46213],[-84.79845,10.46218],[-84.79791,10.46177],[-84.79786,10.46128],[-84.79742,10.46156],[-84.79798,10.46229],[-84.79765,10.46307],[-84.79665,10.46217],[-84.79664,10.46289],[-84.79577,10.4636],[-84.79564,10.46425],[-84.7959,10.46441],[-84.7951,10.46396],[-84.79496,10.46345],[-84.79477,10.46416],[-84.79462,10.4639],[-84.79415,10.46422],[-84.79413,10.46388],[-84.79392,10.46417],[-84.79373,10.46395],[-84.79417,10.46365],[-84.79385,10.46312],[-84.79527,10.46205],[-84.79498,10.46155],[-84.79527,10.46106],[-84.79446,10.46133],[-84.79264,10.46055],[-84.79226,10.46131],[-84.79126,10.46174],[-84.79111,10.46072],[-84.79009,10.46126],[-84.7901,10.46182],[-84.78963,10.46197],[-84.78986,10.46238],[-84.7891,10.46284],[-84.78922,10.46237],[-84.78858,10.46196],[-84.78883,10.46112],[-84.78698,10.46214],[-84.78621,10.46161],[-84.78607,10.46021],[-84.78533,10.46002],[-84.78525,10.46204],[-84.78437,10.46183],[-84.78398,10.46113],[-84.78323,10.46135],[-84.78287,10.46101],[-84.78235,10.46165],[-84.78173,10.46162],[-84.78073,10.46263],[-84.78075,10.46322],[-84.77924,10.46291],[-84.77901,10.46327],[-84.77864,10.463],[-84.77864,10.4625],[-84.77816,10.46276],[-84.77814,10.46242],[-84.77754,10.4623],[-84.77729,10.46151],[-84.77624,10.46261],[-84.77587,10.46196],[-84.77587,10.46272],[-84.77556,10.46246],[-84.77448,10.46283],[-84.77413,10.46354],[-84.7737,10.46357],[-84.7734,10.46467],[-84.77283,10.4651],[-84.77442,10.46455],[-84.77514,10.46482],[-84.77573,10.46569],[-84.77681,10.46578],[-84.77685,10.46626],[-84.7766,10.46599],[-84.77576,10.46636],[-84.77647,10.46696],[-84.77645,10.46771],[-84.77613,10.46703],[-84.77538,10.46671],[-84.77522,10.4661],[-84.77467,10.46564],[-84.77439,10.46617],[-84.77466,10.46651],[-84.77442,10.46641],[-84.77453,10.46714],[-84.77413,10.4667],[-84.77371,10.46715],[-84.77222,10.46721],[-84.77238,10.46852],[-84.77165,10.46887],[-84.77134,10.46943],[-84.77069,10.46925],[-84.77027,10.46971],[-84.77008,10.46938],[-84.76982,10.47015],[-84.76913,10.46995],[-84.76944,10.47097],[-84.76887,10.47201],[-84.76943,10.47194],[-84.77004,10.4723],[-84.76932,10.47268],[-84.76974,10.47435],[-84.76892,10.47482],[-84.76712,10.47443],[-84.76672,10.4748],[-84.7664,10.47453],[-84.76607,10.47469],[-84.76612,10.47542],[-84.76521,10.47563],[-84.76425,10.47684],[-84.76467,10.47702],[-84.76451,10.4772],[-84.76515,10.47795],[-84.76394,10.47777],[-84.76352,10.47904],[-84.76262,10.47683],[-84.75897,10.47226],[-84.75994,10.47098],[-84.76146,10.47099],[-84.76158,10.46957],[-84.76184,10.46954],[-84.76122,10.46927],[-84.76243,10.46883],[-84.76297,10.46822],[-84.76259,10.46827],[-84.76189,10.46734],[-84.76169,10.46774],[-84.76141,10.46742],[-84.76094,10.46766],[-84.76085,10.46728],[-84.76026,10.46854],[-84.75995,10.46784],[-84.75962,10.46804],[-84.7594,10.46759],[-84.75891,10.4678],[-84.75915,10.46732],[-84.75975,10.46724],[-84.75975,10.46671],[-84.75869,10.46646],[-84.75837,10.46672],[-84.75816,10.46642],[-84.75796,10.46672],[-84.75695,10.4661],[-84.75786,10.46622],[-84.75874,10.46564],[-84.75935,10.46583],[-84.75917,10.46534],[-84.75987,10.4656],[-84.76004,10.4651],[-84.76046,10.46561],[-84.7614,10.4643],[-84.76073,10.46387],[-84.76023,10.46393],[-84.76014,10.46358],[-84.75966,10.46405],[-84.75966,10.46336],[-84.75815,10.46191],[-84.75731,10.46237],[-84.75786,10.46172],[-84.75758,10.46194],[-84.75752,10.46158],[-84.75696,10.4616],[-84.7567,10.46214],[-84.75652,10.46163],[-84.75692,10.46114],[-84.75642,10.46099],[-84.75625,10.45993],[-84.75651,10.45904],[-84.7564,10.45886],[-84.75589,10.45931],[-84.75618,10.45873],[-84.75588,10.4587],[-84.75652,10.45841],[-84.75646,10.45793],[-84.75707,10.45748],[-84.75723,10.45676],[-84.7587,10.45504],[-84.75901,10.4538],[-84.75862,10.45406],[-84.75745,10.45388],[-84.75696,10.45444],[-84.75668,10.45389],[-84.75621,10.45403],[-84.75649,10.45548],[-84.75622,10.45516],[-84.75576,10.4552],[-84.75551,10.45574],[-84.75502,10.45548],[-84.75547,10.45618],[-84.75519,10.45722],[-84.75523,10.4569],[-84.75487,10.45689],[-84.75449,10.45735],[-84.75464,10.45697],[-84.75422,10.45703],[-84.75447,10.45667],[-84.75331,10.4566],[-84.75338,10.45777],[-84.75288,10.45844],[-84.75304,10.45908],[-84.75267,10.45899],[-84.75266,10.45942],[-84.75169,10.45933],[-84.75153,10.45823],[-84.75106,10.4576],[-84.75132,10.45832],[-84.75071,10.45952],[-84.75123,10.46048],[-84.75083,10.4605],[-84.75063,10.46107],[-84.75036,10.4609],[-84.75012,10.46113],[-84.74948,10.46043],[-84.74997,10.46146]],[[-84.73541,10.43539],[-84.73528,10.43574],[-84.73563,10.43548],[-84.73541,10.43539]],[[-84.73427,10.43739],[-84.73491,10.43681],[-84.73463,10.43661],[-84.73425,10.43714],[-84.7342,10.43693],[-84.73336,10.43717],[-84.73317,10.43737],[-84.73384,10.4373],[-84.73246,10.43801],[-84.73427,10.43739]],[[-84.75973,10.4555],[-84.75998,10.45563],[-84.76017,10.4552],[-84.7604,10.45539],[-84.76012,10.45477],[-84.75996,10.45511],[-84.75902,10.45531],[-84.7592,10.45574],[-84.75973,10.4555]],[[-84.77013,10.45797],[-84.77058,10.45682],[-84.77124,10.45624],[-84.76993,10.4566],[-84.76972,10.4561],[-84.77008,10.45595],[-84.77004,10.4556],[-84.76919,10.45592],[-84.7687,10.45565],[-84.76878,10.45518],[-84.76807,10.45526],[-84.76804,10.45469],[-84.76758,10.455],[-84.76729,10.45469],[-84.76659,10.45476],[-84.76669,10.45527],[-84.76606,10.45589],[-84.76671,10.4561],[-84.76654,10.45644],[-84.7668,10.45654],[-84.76659,10.4567],[-84.76678,10.45754],[-84.76641,10.45778],[-84.76709,10.45752],[-84.76727,10.45687],[-84.76854,10.4563],[-84.76848,10.45676],[-84.76889,10.45675],[-84.76939,10.45733],[-84.76899,10.4576],[-84.76904,10.45844],[-84.76964,10.4579],[-84.77013,10.45797]],[[-84.77944,10.45756],[-84.77967,10.45764],[-84.77972,10.45721],[-84.77923,10.45737],[-84.77944,10.45756]],[[-84.78209,10.4563],[-84.78271,10.45657],[-84.78243,10.45607],[-84.78295,10.45475],[-84.78252,10.45503],[-84.78209,10.4563]],[[-84.78394,10.44048],[-84.78427,10.44028],[-84.78369,10.44029],[-84.78394,10.44048]],[[-84.86467,10.4926],[-84.86446,10.49176],[-84.8633,10.49277],[-84.86371,10.49325],[-84.86467,10.4926]],[[-84.87858,10.49657],[-84.87913,10.49659],[-84.87856,10.49613],[-84.87824,10.49649],[-84.87858,10.49657]],[[-84.8575,10.50836],[-84.85804,10.50818],[-84.85801,10.50775],[-84.85719,10.50777],[-84.85723,10.50838],[-84.8575,10.50836]],[[-84.90352,10.52925],[-84.90295,10.52903],[-84.90259,10.52923],[-84.9031,10.5304],[-84.90374,10.52974],[-84.90352,10.52925]],[[-84.90231,10.53301],[-84.90254,10.53259],[-84.90117,10.53228],[-84.90046,10.53315],[-84.90076,10.5335],[-84.9017,10.53364],[-84.90214,10.5335],[-84.90231,10.53301]],[[-84.89,10.53468],[-84.88939,10.53479],[-84.89012,10.53521],[-84.89102,10.53493],[-84.89,10.53468]],[[-84.95404,10.52114],[-84.95351,10.52214],[-84.95491,10.52305],[-84.95571,10.52225],[-84.95474,10.52104],[-84.95404,10.52114]],[[-84.93062,10.54286],[-84.93096,10.54229],[-84.93024,10.54222],[-84.92986,10.54256],[-84.9294,10.5421],[-84.92902,10.54321],[-84.93062,10.54286]],[[-84.92829,10.54184],[-84.92794,10.54147],[-84.9277,10.54221],[-84.92829,10.54184]],[[-84.92515,10.54349],[-84.92609,10.54322],[-84.92594,10.54281],[-84.92661,10.54171],[-84.92646,10.54131],[-84.9257,10.54111],[-84.92612,10.53778],[-84.92567,10.53468],[-84.92263,10.53567],[-84.92122,10.53438],[-84.92003,10.53444],[-84.91976,10.5347],[-84.9199,10.53519],[-84.92076,10.53603],[-84.9202,10.53662],[-84.91896,10.53704],[-84.92022,10.53834],[-84.91906,10.539],[-84.91881,10.53973],[-84.9193,10.54029],[-84.91915,10.54177],[-84.92118,10.5416],[-84.92045,10.54266],[-84.92086,10.54288],[-84.92097,10.54366],[-84.92159,10.54338],[-84.92249,10.54358],[-84.92226,10.54455],[-84.92283,10.54558],[-84.9238,10.54533],[-84.92444,10.54575],[-84.9248,10.54507],[-84.92433,10.5447],[-84.92437,10.54414],[-84.92586,10.54432],[-84.92487,10.54358],[-84.92515,10.54349]],[[-84.92485,10.55131],[-84.92437,10.5507],[-84.92403,10.55092],[-84.92416,10.5513],[-84.92534,10.55225],[-84.92585,10.55334],[-84.92784,10.55262],[-84.92746,10.55229],[-84.92602,10.55276],[-84.92485,10.55131]]]}}]}