{
  "type": "FeatureCollection",
  "name": "distritos_tilaran_simulados",
  "crs": {
    "type": "name",
    "properties": {
      "name": "urn:ogc:def:crs:OGC:1.3:CRS84"
    }
  },
  "advertencia": "Geometrias de marcador de posicion, no son los limites reales de los distritos. Se reemplazan en la historia H1.3 con la capa del SNIT.",
  "features": [
    {
      "type": "Feature",
      "geometry": {
        "type": "Polygon",
        "coordinates": [
          [
            [
              -84.97,
              10.47
            ],
            [
              -84.92999999999999,
              10.47
            ],
            [
              -84.92999999999999,
              10.430000000000001
            ],
            [
              -84.97,
              10.430000000000001
            ],
            [
              -84.97,
              10.47
            ]
          ]
        ]
      },
      "properties": {
        "codigo": "50801",
        "nombre": "Tilaran",
        "area_km2": 60.0,
        "poblacion": null,
        "geometria_simulada": true
      }
    },
    {
      "type": "Feature",
      "geometry": {
        "type": "Polygon",
        "coordinates": [
          [
            [
              -84.88,
              10.47
            ],
            [
              -84.83999999999999,
              10.47
            ],
            [
              -84.83999999999999,
              10.430000000000001
            ],
            [
              -84.88,
              10.430000000000001
            ],
            [
              -84.88,
              10.47
            ]
          ]
        ]
      },
      "properties": {
        "codigo": "50802",
        "nombre": "Quebrada Grande",
        "area_km2": 88.4,
        "poblacion": null,
        "geometria_simulada": true
      }
    },
    {
      "type": "Feature",
      "geometry": {
        "type": "Polygon",
        "coordinates": [
          [
            [
              -84.78999999999999,
              10.47
            ],
            [
              -84.74999999999999,
              10.47
            ],
            [
              -84.74999999999999,
              10.430000000000001
            ],
            [
              -84.78999999999999,
              10.430000000000001
            ],
            [
              -84.78999999999999,
              10.47
            ]
          ]
        ]
      },
      "properties": {
        "codigo": "50803",
        "nombre": "Tronadora",
        "area_km2": 30.2,
        "poblacion": null,
        "geometria_simulada": true
      }
    },
    {
      "type": "Feature",
      "geometry": {
        "type": "Polygon",
        "coordinates": [
          [
            [
              -84.97,
              10.4
            ],
            [
              -84.92999999999999,
              10.4
            ],
            [
              -84.92999999999999,
              10.360000000000001
            ],
            [
              -84.97,
              10.360000000000001
            ],
            [
              -84.97,
              10.4
            ]
          ]
        ]
      },
      "properties": {
        "codigo": "50804",
        "nombre": "Santa Rosa",
        "area_km2": 33.6,
        "poblacion": null,
        "geometria_simulada": true
      }
    },
    {
      "type": "Feature",
      "geometry": {
        "type": "Polygon",
        "coordinates": [
          [
            [
              -84.88,
              10.4
            ],
            [
              -84.83999999999999,
              10.4
            ],
            [
              -84.83999999999999,
              10.360000000000001
            ],
            [
              -84.88,
              10.360000000000001
            ],
            [
              -84.88,
              10.4
            ]
          ]
        ]
      },
      "properties": {
        "codigo": "50805",
        "nombre": "Libano",
        "area_km2": 76.9,
        "poblacion": null,
        "geometria_simulada": true
      }
    },
    {
      "type": "Feature",
      "geometry": {
        "type": "Polygon",
        "coordinates": [
          [
            [
              -84.78999999999999,
              10.4
            ],
            [
              -84.74999999999999,
              10.4
            ],
            [
              -84.74999999999999,
              10.360000000000001
            ],
            [
              -84.78999999999999,
              10.360000000000001
            ],
            [
              -84.78999999999999,
              10.4
            ]
          ]
        ]
      },
      "properties": {
        "codigo": "50806",
        "nombre": "Tierras Morenas",
        "area_km2": 76.4,
        "poblacion": null,
        "geometria_simulada": true
      }
    },
    {
      "type": "Feature",
      "geometry": {
        "type": "Polygon",
        "coordinates": [
          [
            [
              -84.97,
              10.33
            ],
            [
              -84.92999999999999,
              10.33
            ],
            [
              -84.92999999999999,
              10.290000000000001
            ],
            [
              -84.97,
              10.290000000000001
            ],
            [
              -84.97,
              10.33
            ]
          ]
        ]
      },
      "properties": {
        "codigo": "50807",
        "nombre": "Arenal",
        "area_km2": 156.5,
        "poblacion": null,
        "geometria_simulada": true
      }
    },
    {
      "type": "Feature",
      "geometry": {
        "type": "Polygon",
        "coordinates": [
          [
            [
              -84.88,
              10.33
            ],
            [
              -84.83999999999999,
              10.33
            ],
            [
              -84.83999999999999,
              10.290000000000001
            ],
            [
              -84.88,
              10.290000000000001
            ],
            [
              -84.88,
              10.33
            ]
          ]
        ]
      },
      "properties": {
        "codigo": "50808",
        "nombre": "Cabeceras",
        "area_km2": 116.3,
        "poblacion": null,
        "geometria_simulada": true
      }
    }
  ]
}